[{"OBJECT_NAME":"STARLINK-3533","OBJECT_ID":"2022-016B","EPOCH":"2026-03-09T22:27:09.819648","MEAN_MOTION":15.08833144,"ECCENTRICITY":0.00016026,"INCLINATION":53.22,"RA_OF_ASC_NODE":328.0255,"ARG_OF_PERICENTER":100.2594,"MEAN_ANOMALY":259.8579,"EPHEMERIS_TYPE":0,"CLASSIFICATION_TYPE":"U","NORAD_CAT_ID":51715,"ELEMENT_SET_NO":999,"REV_AT_EPOCH":22459,"BSTAR":-5.5116975e-5,"MEAN_MOTION_DOT":-1.165e-5,"MEAN_MOTION_DDOT":0},{"OBJECT_NAME":"COSMOS 1275 DEB","OBJECT_ID":"1981-053RH","EPOCH":"2026-03-08T19:02:02.535360","MEAN_MOTION":15.08606043,"ECCENTRICITY":0.00097404,"INCLINATION":83.3308,"RA_OF_ASC_NODE":196.5935,"ARG_OF_PERICENTER":282.896,"MEAN_ANOMALY":77.1182,"EPHEMERIS_TYPE":0,"CLASSIFICATION_TYPE":"U","NORAD_CAT_ID":42145,"ELEMENT_SET_NO":999,"REV_AT_EPOCH":64889,"BSTAR":0.0090120528,"MEAN_MOTION_DOT":0.00143721,"MEAN_MOTION_DDOT":0}]
